{"type": "FeatureCollection", "features": [ {"type": "Feature", "properties": {"norad_id": 34400, "name": "COSMOS 2251 DEB", "group": "cosmos-2251-debris", "lat": -34.55287523956494, "lon": -9.18118370222352, "alt_km": 400.7212744682638, "timestamp": "2025-12-22T05:49:03.895455+00:00", "meta": {"OBJECT_NAME": "COSMOS 2251 DEB", "OBJECT_ID": "1993-036QR", "EPOCH": "2025-12-21T17:38:21.254208", "MEAN_MOTION": 15.57308348, "ECCENTRICITY": 0.0003137, "INCLINATION": 73.9629, "RA_OF_ASC_NODE": 3.3743, "ARG_OF_PERICENTER": 234.0295, "MEAN_ANOMALY": 126.0631, "EPHEMERIS_TYPE": 0, "CLASSIFICATION_TYPE": "U", "NORAD_CAT_ID": 34400, "ELEMENT_SET_NO": 999, "REV_AT_EPOCH": 90114, "BSTAR": 0.0032335, "MEAN_MOTION_DOT": 0.00243586, "MEAN_MOTION_DDOT": 0}, "tle": {"line1": "1 34400U 93036QR  25355.73496822  .00243586  00000+0  32335-2 0  9998", "line2": "2 34400  73.9629   3.3743 0003137 234.0295 126.0631 15.57308348901146"}}, "geometry": {"type": "Point", "coordinates": [-9.18118370222352, -34.55287523956494]}}, {"type": "Feature", "properties": {"norad_id": 34409, "name": "COSMOS 2251 DEB", "group": "cosmos-2251-debris", "lat": 39.71996794054032, "lon": 95.05786566436477, "alt_km": 737.8345813185679, "timestamp": "2025-12-22T05:49:03.895465+00:00", "meta": {"OBJECT_NAME": "COSMOS 2251 DEB", "OBJECT_ID": "1993-036RA", "EPOCH": "2025-12-21T06:49:42.703392", "MEAN_MOTION": 14.58046612, "ECCENTRICITY": 0.0080244, "INCLINATION": 74.0636, "RA_OF_ASC_NODE": 290.6088, "ARG_OF_PERICENTER": 2.6981, "MEAN_ANOMALY": 149.1077, "EPHEMERIS_TYPE": 0, "CLASSIFICATION_TYPE": "U", "NORAD_CAT_ID": 34409, "ELEMENT_SET_NO": 999, "REV_AT_EPOCH": 89317, "BSTAR": 0.00019904, "MEAN_MOTION_DOT": 9.25e-06, "MEAN_MOTION_DDOT": 0}, "tle": {"line1": "1 34409U 93036RA  25355.28452203  .00000925  00000+0  19904-3 0  9998", "line2": "2 34409  74.0636 290.6088 0080244   2.6981 149.1077 14.58046612893179"}}, "geometry": {"type": "Point", "coordinates": [95.05786566436477, 39.71996794054032]}}, {"type": "Feature", "properties": {"norad_id": 34410, "name": "COSMOS 2251 DEB", "group": "cosmos-2251-debris", "lat": 62.21857721707545, "lon": 27.828680426578302, "alt_km": 487.5891856053877, "timestamp": "2025-12-22T05:49:03.895476+00:00", "meta": {"OBJECT_NAME": "COSMOS 2251 DEB", "OBJECT_ID": "1993-036RB", "EPOCH": "2025-12-21T18:31:45.060384", "MEAN_MOTION": 15.19701228, "ECCENTRICITY": 0.0021492, "INCLINATION": 73.7368, "RA_OF_ASC_NODE": 242.4821, "ARG_OF_PERICENTER": 82.3233, "MEAN_ANOMALY": 338.1079, "EPHEMERIS_TYPE": 0, "CLASSIFICATION_TYPE": "U", "NORAD_CAT_ID": 34410, "ELEMENT_SET_NO": 999, "REV_AT_EPOCH": 89911, "BSTAR": 0.0018865, "MEAN_MOTION_DOT": 0.00040728, "MEAN_MOTION_DDOT": 0}, "tle": {"line1": "1 34410U 93036RB  25355.77204931  .00040728  00000+0  18865-2 0  9996", "line2": "2 34410  73.7368 242.4821 0021492  82.3233 338.1079 15.19701228899115"}}, "geometry": {"type": "Point", "coordinates": [27.828680426578302, 62.21857721707545]}}, {"type": "Feature", "properties": {"norad_id": 34412, "name": "COSMOS 2251 DEB", "group": "cosmos-2251-debris", "lat": -24.26423762343768, "lon": -60.71894467904275, "alt_km": 681.0514318862788, "timestamp": "2025-12-22T05:49:03.895486+00:00", "meta": {"OBJECT_NAME": "COSMOS 2251 DEB", "OBJECT_ID": "1993-036RD", "EPOCH": "2025-12-21T06:42:21.482784", "MEAN_MOTION": 14.47229294, "ECCENTRICITY": 0.01875477, "INCLINATION": 73.9486, "RA_OF_ASC_NODE": 308.5482, "ARG_OF_PERICENTER": 41.6351, "MEAN_ANOMALY": 319.8911, "EPHEMERIS_TYPE": 0, "CLASSIFICATION_TYPE": "U", "NORAD_CAT_ID": 34412, "ELEMENT_SET_NO": 999, "REV_AT_EPOCH": 87774, "BSTAR": 0.0012144064, "MEAN_MOTION_DOT": 5.508e-05, "MEAN_MOTION_DDOT": 0}, "tle": {"line1": "1 34412U 93036RD  25355.27941531  .00005508  00000+0  12144-2 0  9998", "line2": "2 34412  73.9486 308.5482 0187547  41.6351 319.8911 14.47229294877744"}}, "geometry": {"type": "Point", "coordinates": [-60.71894467904275, -24.26423762343768]}}, {"type": "Feature", "properties": {"norad_id": 34413, "name": "COSMOS 2251 DEB", "group": "cosmos-2251-debris", "lat": -29.21238842125062, "lon": 76.83292483277435, "alt_km": 823.8994453153737, "timestamp": "2025-12-22T05:49:03.895496+00:00", "meta": {"OBJECT_NAME": "COSMOS 2251 DEB", "OBJECT_ID": "1993-036RE", "EPOCH": "2025-12-21T17:12:45.183168", "MEAN_MOTION": 14.29160508, "ECCENTRICITY": 0.0090965, "INCLINATION": 74.0306, "RA_OF_ASC_NODE": 248.5728, "ARG_OF_PERICENTER": 323.4022, "MEAN_ANOMALY": 66.8208, "EPHEMERIS_TYPE": 0, "CLASSIFICATION_TYPE": "U", "NORAD_CAT_ID": 34413, "ELEMENT_SET_NO": 999, "REV_AT_EPOCH": 87259, "BSTAR": 0.0010484, "MEAN_MOTION_DOT": 2.756e-05, "MEAN_MOTION_DDOT": 0}, "tle": {"line1": "1 34413U 93036RE  25355.71718962  .00002756  00000+0  10484-2 0  9995", "line2": "2 34413  74.0306 248.5728 0090965 323.4022  66.8208 14.29160508872595"}}, "geometry": {"type": "Point", "coordinates": [76.83292483277435, -29.21238842125062]}}, {"type": "Feature", "properties": {"norad_id": 34420, "name": "COSMOS 2251 DEB", "group": "cosmos-2251-debris", "lat": -22.379303530646187, "lon": -87.65112565046742, "alt_km": 596.6283299675179, "timestamp": "2025-12-22T05:49:03.895507+00:00", "meta": {"OBJECT_NAME": "COSMOS 2251 DEB", "OBJECT_ID": "1993-036RM", "EPOCH": "2025-12-21T16:33:08.574048", "MEAN_MOTION": 14.68321985, "ECCENTRICITY": 0.0106252, "INCLINATION": 74.0334, "RA_OF_ASC_NODE": 86.6475, "ARG_OF_PERICENTER": 205.6649, "MEAN_ANOMALY": 317.1141, "EPHEMERIS_TYPE": 0, "CLASSIFICATION_TYPE": "U", "NORAD_CAT_ID": 34420, "ELEMENT_SET_NO": 999, "REV_AT_EPOCH": 89901, "BSTAR": 0.00017997, "MEAN_MOTION_DOT": 1.096e-05, "MEAN_MOTION_DDOT": 0}, "tle": {"line1": "1 34420U 93036RM  25355.68968257  .00001096  00000+0  17997-3 0  9996", "line2": "2 34420  74.0334  86.6475 0106252 205.6649 317.1141 14.68321985899012"}}, "geometry": {"type": "Point", "coordinates": [-87.65112565046742, -22.379303530646187]}}, {"type": "Feature", "properties": {"norad_id": 34425, "name": "COSMOS 2251 DEB", "group": "cosmos-2251-debris", "lat": 71.1765856340305, "lon": 93.51818608809394, "alt_km": 675.9674845112831, "timestamp": "2025-12-22T05:49:03.895528+00:00", "meta": {"OBJECT_NAME": "COSMOS 2251 DEB", "OBJECT_ID": "1993-036RS", "EPOCH": "2025-12-21T06:27:49.476096", "MEAN_MOTION": 14.62170318, "ECCENTRICITY": 0.0024348, "INCLINATION": 74.0185, "RA_OF_ASC_NODE": 38.1671, "ARG_OF_PERICENTER": 162.2654, "MEAN_ANOMALY": 197.9368, "EPHEMERIS_TYPE": 0, "CLASSIFICATION_TYPE": "U", "NORAD_CAT_ID": 34425, "ELEMENT_SET_NO": 999, "REV_AT_EPOCH": 88865, "BSTAR": 0.00038687, "MEAN_MOTION_DOT": 1.925e-05, "MEAN_MOTION_DDOT": 0}, "tle": {"line1": "1 34425U 93036RS  25355.26932264  .00001925  00000+0  38687-3 0  9994", "line2": "2 34425  74.0185  38.1671 0024348 162.2654 197.9368 14.62170318888659"}}, "geometry": {"type": "Point", "coordinates": [93.51818608809394, 71.1765856340305]}}, {"type": "Feature", "properties": {"norad_id": 34429, "name": "COSMOS 2251 DEB", "group": "cosmos-2251-debris", "lat": 36.04083046919294, "lon": 159.36108130767516, "alt_km": 422.19613945965284, "timestamp": "2025-12-22T05:49:03.895541+00:00", "meta": {"OBJECT_NAME": "COSMOS 2251 DEB", "OBJECT_ID": "1993-036RW", "EPOCH": "2025-12-21T17:16:48.118368", "MEAN_MOTION": 15.45129102, "ECCENTRICITY": 0.0012156, "INCLINATION": 73.9669, "RA_OF_ASC_NODE": 148.4249, "ARG_OF_PERICENTER": 348.9874, "MEAN_ANOMALY": 23.9309, "EPHEMERIS_TYPE": 0, "CLASSIFICATION_TYPE": "U", "NORAD_CAT_ID": 34429, "ELEMENT_SET_NO": 999, "REV_AT_EPOCH": 89587, "BSTAR": 0.0050564, "MEAN_MOTION_DOT": 0.00247928, "MEAN_MOTION_DDOT": 0}, "tle": {"line1": "1 34429U 93036RW  25355.72000137  .00247928  00000+0  50564-2 0  9996", "line2": "2 34429  73.9669 148.4249 0012156 348.9874  23.9309 15.45129102895877"}}, "geometry": {"type": "Point", "coordinates": [159.36108130767516, 36.04083046919294]}}, {"type": "Feature", "properties": {"norad_id": 34430, "name": "COSMOS 2251 DEB", "group": "cosmos-2251-debris", "lat": 7.166173178080657, "lon": 103.76922417900094, "alt_km": 804.6236748481442, "timestamp": "2025-12-22T05:49:03.895552+00:00", "meta": {"OBJECT_NAME": "COSMOS 2251 DEB", "OBJECT_ID": "1993-036RX", "EPOCH": "2025-12-21T05:40:15.366144", "MEAN_MOTION": 14.39656324, "ECCENTRICITY": 0.0060747, "INCLINATION": 74.0518, "RA_OF_ASC_NODE": 287.6852, "ARG_OF_PERICENTER": 355.3377, "MEAN_ANOMALY": 4.7203, "EPHEMERIS_TYPE": 0, "CLASSIFICATION_TYPE": "U", "NORAD_CAT_ID": 34430, "ELEMENT_SET_NO": 999, "REV_AT_EPOCH": 88077, "BSTAR": 0.00036784704, "MEAN_MOTION_DOT": 1.149e-05, "MEAN_MOTION_DDOT": 0}, "tle": {"line1": "1 34430U 93036RX  25355.23628896  .00001149  00000+0  36785-3 0  9995", "line2": "2 34430  74.0518 287.6852 0060747 355.3377   4.7203 14.39656324880775"}}, "geometry": {"type": "Point", "coordinates": [103.76922417900094, 7.166173178080657]}}, {"type": "Feature", "properties": {"norad_id": 34431, "name": "COSMOS 2251 DEB", "group": "cosmos-2251-debris", "lat": 58.373270415695636, "lon": -174.3788082751259, "alt_km": 779.9533603185082, "timestamp": "2025-12-22T05:49:03.895562+00:00", "meta": {"OBJECT_NAME": "COSMOS 2251 DEB", "OBJECT_ID": "1993-036RY", "EPOCH": "2025-12-21T19:26:36.496896", "MEAN_MOTION": 14.28802904, "ECCENTRICITY": 0.0067941, "INCLINATION": 74.0738, "RA_OF_ASC_NODE": 158.7808, "ARG_OF_PERICENTER": 142.0492, "MEAN_ANOMALY": 218.5474, "EPHEMERIS_TYPE": 0, "CLASSIFICATION_TYPE": "U", "NORAD_CAT_ID": 34431, "ELEMENT_SET_NO": 999, "REV_AT_EPOCH": 87272, "BSTAR": 0.00055769, "MEAN_MOTION_DOT": 1.416e-05, "MEAN_MOTION_DDOT": 0}, "tle": {"line1": "1 34431U 93036RY  25355.81014464  .00001416  00000+0  55769-3 0  9990", "line2": "2 34431  74.0738 158.7808 0067941 142.0492 218.5474 14.28802904872727"}}, "geometry": {"type": "Point", "coordinates": [-174.3788082751259, 58.373270415695636]}}]}